NORAD_CAT_ID,OBJECT_NAME,OBJECT_TYPE,EPOCH,MEAN_MOTION,ECCENTRICITY,INCLINATION,RA_OF_ASC_NODE,ARG_OF_PERICENTER,MEAN_ANOMALY,BSTAR,MEAN_MOTION_DOT,MEAN_MOTION_DDOT,TLE_LINE0,TLE_LINE1,TLE_LINE2,SEMIMAJOR_AXIS,PERIOD,APOGEE,PERIGEE,DECAYED
55746.0,STARLINK-5579,PAYLOAD,2023-05-27 10:02:55,14.98331097,0.0003402,70.0005,289.3256,272.9378,87.1392,-4.616e-06,-1.48e-06,0.0,0 STARLINK-5579,1 55746U 23028F   23147.41869309 -.00000148  00000-0 -46160-5 0  9996,2 55746  70.0005 289.3256 0003402 272.9378  87.1392 14.98331097 13664,6950.189,96.107,574.419,569.69,0.0
55746.0,STARLINK-5579,PAYLOAD,2023-05-27 19:39:43,14.98331454,0.0003411,70.0007,288.3166,270.549,89.5278,-1.24e-05,-2.41e-06,0.0,0 STARLINK-5579,1 55746U 23028F   23147.81925252 -.00000241  00000-0 -12400-4 0  9993,2 55746  70.0007 288.3166 0003411 270.5490  89.5278 14.98331454 13727,6950.188,96.107,574.424,569.683,0.0
55746.0,STARLINK-5579,PAYLOAD,2023-05-28 02:04:15,14.98330511,0.0003437,70.0007,287.6433,270.1844,89.8921,6.594e-06,-1.4e-07,0.0,0 STARLINK-5579,1 55746U 23028F   23148.08629222 -.00000014  00000-0  65940-5 0  9996,2 55746  70.0007 287.6433 0003437 270.1844  89.8921 14.98330511 13768,6950.191,96.107,574.445,569.668,0.0
55746.0,STARLINK-5579,PAYLOAD,2023-05-28 10:04:55,14.98331843,0.0003515,70.0005,286.8016,269.5864,90.4892,2.7701e-05,2.37e-06,0.0,0 STARLINK-5579,1 55746U 23028F   23148.42009040  .00000237  00000-0  27701-4 0  9992,2 55746  70.0005 286.8016 0003515 269.5864  90.4892 14.98331843 13815,6950.187,96.107,574.495,569.609,0.0
55746.0,STARLINK-5579,PAYLOAD,2023-05-28 18:05:36,14.98325817,0.0003596,70.0003,285.9599,269.5637,90.511,-4.4965e-05,-6.3e-06,0.0,0 STARLINK-5579,1 55746U 23028F   23148.75389615 -.00000630  00000-0 -44965-4 0  9997,2 55746  70.0003 285.9599 0003596 269.5637  90.5110 14.98325817 13869,6950.206,96.107,574.57,569.572,0.0
55746.0,STARLINK-5579,PAYLOAD,2023-05-29 14:55:21,14.98329449,0.0003668,70.0001,283.7714,268.7922,91.2816,-7.8859e-06,-1.87e-06,0.0,0 STARLINK-5579,1 55746U 23028F   23149.62177451 -.00000187  00000-0 -78859-5 0  9994,2 55746  70.0001 283.7714 0003668 268.7922  91.2816 14.98329449 13990,6950.195,96.107,574.609,569.51,0.0
55746.0,STARLINK-5579,PAYLOAD,2023-05-29 16:31:29,14.98330901,0.000365,70.0,283.6031,268.8205,91.2536,8.6636e-06,1e-07,0.0,0 STARLINK-5579,1 55746U 23028F   23149.68853310  .00000010  00000-0  86636-5 0  9990,2 55746  70.0000 283.6031 0003650 268.8205  91.2536 14.98330901 14003,6950.19,96.107,574.592,569.518,0.0
55746.0,STARLINK-5579,PAYLOAD,2023-05-29 18:07:37,14.9833258,0.0003642,70.0001,283.4348,268.7562,91.318,2.6868e-05,2.28e-06,0.0,0 STARLINK-5579,1 55746U 23028F   23149.75529142  .00000228  00000-0  26868-4 0  9992,2 55746  70.0001 283.4348 0003642 268.7562  91.3180 14.98332580 14011,6950.185,96.107,574.581,569.519,0.0
55746.0,STARLINK-5579,PAYLOAD,2023-05-30 11:45:05,14.98332565,0.0003555,70.0,281.5829,269.6941,90.3811,2.0927e-05,1.57e-06,0.0,0 STARLINK-5579,1 55746U 23028F   23150.48965091  .00000157  00000-0  20927-4 0  9992,2 55746  70.0000 281.5829 0003555 269.6941  90.3811 14.98332565 14122,6950.185,96.107,574.521,569.579,0.0
55746.0,STARLINK-5579,PAYLOAD,2023-05-30 16:33:29,14.98334491,0.0003573,70.0002,281.078,268.5995,91.4755,2.9323e-05,2.57e-06,0.0,0 STARLINK-5579,1 55746U 23028F   23150.68992894  .00000257  00000-0  29323-4 0  9995,2 55746  70.0002 281.0780 0003573 268.5995  91.4755 14.98334491 14154,6950.179,96.107,574.527,569.561,0.0
55746.0,STARLINK-5579,PAYLOAD,2023-05-31 02:10:18,14.98330296,0.0003502,70.0006,280.0679,268.9161,91.1597,9.3548e-05,1.023e-05,0.0,0 STARLINK-5579,1 55746U 23028F   23151.09048961  .00001023  00000-0  93548-4 0  9990,2 55746  70.0006 280.0679 0003502 268.9161  91.1597 14.98330296 14212,6950.192,96.107,574.491,569.623,0.0
55746.0,STARLINK-5579,PAYLOAD,2023-05-31 14:59:22,14.98332256,0.0003373,70.0006,278.7209,264.4628,95.6146,-1.1352e-05,-2.29e-06,0.0,0 STARLINK-5579,1 55746U 23028F   23151.62457098 -.00000229  00000-0 -11352-4 0  9996,2 55746  70.0006 278.7209 0003373 264.4628  95.6146 14.98332256 14295,6950.186,96.107,574.395,569.707,0.0
55746.0,STARLINK-5579,PAYLOAD,2023-05-31 18:11:39,14.98331439,0.0003496,70.0005,278.3848,268.392,91.6838,1.4296e-05,7.8e-07,0.0,0 STARLINK-5579,1 55746U 23028F   23151.75809083  .00000078  00000-0  14296-4 0  9995,2 55746  70.0005 278.3848 0003496 268.3920  91.6838 14.98331439 14312,6950.188,96.107,574.483,569.624,0.0
55746.0,STARLINK-5579,PAYLOAD,2023-06-01 02:12:19,14.98322803,0.0003277,70.0007,277.5427,269.9516,90.1268,0.00011322,1.258e-05,0.0,0 STARLINK-5579,1 55746U 23028F   23152.09189449  .00001258  00000-0  11322-3 0  9997,2 55746  70.0007 277.5427 0003277 269.9516  90.1268 14.98322803 14364,6950.215,96.107,574.358,569.803,0.0
55746.0,STARLINK-5579,PAYLOAD,2023-06-01 10:12:59,14.98333193,0.0003499,70.0004,276.7014,268.5468,91.529,-8.4146e-06,-1.93e-06,0.0,0 STARLINK-5579,1 55746U 23028F   23152.42568908 -.00000193  00000-0 -84146-5 0  9990,2 55746  70.0004 276.7014 0003499 268.5468  91.5290 14.98333193 14411,6950.183,96.107,574.48,569.616,0.0
55746.0,STARLINK-5579,PAYLOAD,2023-06-02 10:15:00,14.9832766,0.0003498,70.0,274.1764,268.0082,92.0677,2.7963e-06,-6e-07,0.0,0 STARLINK-5579,1 55746U 23028F   23153.42709100 -.00000060  00000-0  27963-5 0  9998,2 55746  70.0000 274.1764 0003498 268.0082  92.0677 14.98327660 14560,6950.2,96.107,574.496,569.634,0.0
55746.0,STARLINK-5579,PAYLOAD,2023-06-02 13:27:16,14.98328489,0.0003498,70.0,273.8398,268.028,92.0478,1.1493e-05,4.4e-07,0.0,0 STARLINK-5579,1 55746U 23028F   23153.56061041  .00000044  00000-0  11493-4 0  9999,2 55746  70.0000 273.8398 0003498 268.0280  92.0478 14.98328489 14580,6950.198,96.107,574.494,569.631,0.0
55746.0,STARLINK-5579,PAYLOAD,2023-06-02 18:15:40,14.98329131,0.0003581,70.0001,273.3353,268.9427,91.1322,-1.6566e-05,-2.91e-06,0.0,0 STARLINK-5579,1 55746U 23028F   23153.76089102 -.00000291  00000-0 -16566-4 0  9991,2 55746  70.0001 273.3353 0003581 268.9427  91.1322 14.98329131 14619,6950.196,96.107,574.549,569.572,0.0
55746.0,STARLINK-5579,PAYLOAD,2023-06-03 10:17:01,14.9833055,0.0003579,70.0004,271.6528,267.961,92.1139,-3.0105e-06,-1.29e-06,0.0,0 STARLINK-5579,1 55746U 23028F   23154.42848959 -.00000129  00000-0 -30105-5 0  9994,2 55746  70.0004 271.6528 0003579 267.9610  92.1139 14.98330550 14712,6950.191,96.107,574.544,569.569,0.0
55746.0,STARLINK-5579,PAYLOAD,2023-06-03 13:29:17,14.98331814,0.0003485,70.0004,271.3156,268.9212,91.1547,-6.7602e-06,-1.74e-06,0.0,0 STARLINK-5579,1 55746U 23028F   23154.56200899 -.00000174  00000-0 -67602-5 0  9996,2 55746  70.0004 271.3156 0003485 268.9212  91.1547 14.98331814 14739,6950.187,96.107,574.474,569.63,0.0
55746.0,STARLINK-5579,PAYLOAD,2023-06-03 18:17:41,14.98334378,0.0003419,70.0005,270.8105,266.8998,93.177,2.768e-05,2.37e-06,0.0,0 STARLINK-5579,1 55746U 23028F   23154.76228595  .00000237  00000-0  27680-4 0  9990,2 55746  70.0005 270.8105 0003419 266.8998  93.1770 14.98334378 14764,6950.179,96.107,574.421,569.668,0.0
55746.0,STARLINK-5579,PAYLOAD,2023-06-04 10:19:02,14.98323526,0.000344,70.0004,269.1268,270.3893,89.6872,7.577e-06,-3e-08,0.0,0 STARLINK-5579,1 55746U 23028F   23155.42989382 -.00000003  00000-0  75770-5 0  9998,2 55746  70.0004 269.1268 0003440 270.3893  89.6872 14.98323526 14869,6950.213,96.107,574.469,569.687,0.0
55746.0,STARLINK-5579,PAYLOAD,2023-06-04 13:31:18,14.98324236,0.0003351,70.0006,268.7901,268.7047,91.3728,1.4486e-05,8e-07,0.0,0 STARLINK-5579,1 55746U 23028F   23155.56341355  .00000080  00000-0  14486-4 0  9995,2 55746  70.0006 268.7901 0003351 268.7047  91.3728 14.98324236 14884,6950.211,96.107,574.405,569.747,0.0
55746.0,STARLINK-5579,PAYLOAD,2023-06-04 16:43:35,14.98325107,0.0003414,70.0007,268.4539,269.4924,90.5844,-1.5581e-07,-9.5e-07,0.0,0 STARLINK-5579,1 55746U 23028F   23155.69693381 -.00000095  00000-0 -15581-6 0  9995,2 55746  70.0007 268.4539 0003414 269.4924  90.5844 14.98325107 14902,6950.208,96.107,574.446,569.7,0.0
55746.0,STARLINK-5579,PAYLOAD,2023-06-05 10:21:03,14.98333811,0.0003451,70.0007,266.6027,267.8718,92.2046,3.1604e-05,2.84e-06,0.0,0 STARLINK-5579,1 55746U 23028F   23156.43128671  .00000284  00000-0  31604-4 0  9993,2 55746  70.0007 266.6027 0003451 267.8718  92.2046 14.98333811 15015,6950.181,96.107,574.445,569.648,0.0
55746.0,STARLINK-5579,PAYLOAD,2023-06-05 13:33:19,14.98337228,0.000348,70.0006,266.266,267.8389,92.2371,4.3826e-05,4.3e-06,0.0,0 STARLINK-5579,1 55746U 23028F   23156.56480377  .00000430  00000-0  43826-4 0  9993,2 55746  70.0006 266.2660 0003480 267.8389  92.2371 14.98337228 15038,6950.171,96.107,574.454,569.617,0.0
55746.0,STARLINK-5579,PAYLOAD,2023-06-05 16:45:35,14.98336726,0.0003523,70.0006,265.9304,268.5076,91.568,3.7693e-05,3.57e-06,0.0,0 STARLINK-5579,1 55746U 23028F   23156.69832387  .00000357  00000-0  37693-4 0  9992,2 55746  70.0006 265.9304 0003523 268.5076  91.5680 14.98336726 15057,6950.172,96.107,574.486,569.589,0.0
55746.0,STARLINK-5579,PAYLOAD,2023-06-06 08:46:56,14.98326223,0.0003562,70.0006,264.247,269.2061,90.869,1.7977e-05,1.21e-06,0.0,0 STARLINK-5579,1 55746U 23028F   23157.36593016  .00000121  00000-0  17977-4 0  9992,2 55746  70.0006 264.2470 0003562 269.2061  90.8690 14.98326223 15153,6950.205,96.107,574.545,569.594,0.0
55746.0,STARLINK-5579,PAYLOAD,2023-06-06 11:59:12,14.98325616,0.0003571,70.0005,263.9104,269.2041,90.8709,9.9777e-06,2.6e-07,0.0,0 STARLINK-5579,1 55746U 23028F   23157.49945100  .00000026  00000-0  99777-5 0  9994,2 55746  70.0005 263.9104 0003571 269.2041  90.8709 14.98325616 15178,6950.206,96.107,574.553,569.59,0.0
55746.0,STARLINK-5579,PAYLOAD,2023-06-06 16:47:36,14.98328631,0.0003602,70.0006,263.4054,269.1778,90.8968,8.3435e-06,6e-08,0.0,0 STARLINK-5579,1 55746U 23028F   23157.69972929  .00000006  00000-0  83435-5 0  9997,2 55746  70.0006 263.4054 0003602 269.1778  90.8968 14.98328631 15200,6950.197,96.107,574.566,569.559,0.0
